NORAD_CAT_ID,OBJECT_NAME,OBJECT_TYPE,EPOCH,MEAN_MOTION,ECCENTRICITY,INCLINATION,RA_OF_ASC_NODE,ARG_OF_PERICENTER,MEAN_ANOMALY,BSTAR,MEAN_MOTION_DOT,MEAN_MOTION_DDOT,TLE_LINE0,TLE_LINE1,TLE_LINE2,SEMIMAJOR_AXIS,PERIOD,APOGEE,PERIGEE,DECAYED
54792.0,STARLINK-5431,PAYLOAD,2023-03-25 12:13:59,15.08815007,0.0001527,53.2165,212.8694,95.394,264.7226,0.00082283,0.00012823,0.0,0 STARLINK-5431,1 54792U 22175AL  23084.50971990  .00012823  00000-0  82283-3 0  9993,2 54792  53.2165 212.8694 0001527  95.3940 264.7226 15.08815007 14692,6917.957,95.439,540.878,538.765,0.0
54792.0,STARLINK-5431,PAYLOAD,2023-03-25 15:24:46,15.08820627,0.0001697,53.2172,212.2736,111.6721,248.4452,0.0012384,0.00019466,0.0,0 STARLINK-5431,1 54792U 22175AL  23084.64220157  .00019466  00000-0  12384-2 0  9994,2 54792  53.2172 212.2736 0001697 111.6721 248.4452 15.08820627 16874,6917.94,95.439,540.979,538.631,0.0
54792.0,STARLINK-5431,PAYLOAD,2023-03-26 12:04:48,15.08816383,0.0001947,53.2189,208.4131,104.2585,255.8624,0.00010854,1.439e-05,0.0,0 STARLINK-5431,1 54792U 22175AL  23085.50333969  .00001439  00000-0  10854-3 0  9998,2 54792  53.2189 208.4131 0001947 104.2585 255.8624 15.08816383 14844,6917.953,95.439,541.165,538.471,0.0
54792.0,STARLINK-5431,PAYLOAD,2023-03-26 18:26:21,15.08820272,0.0002066,53.2186,207.2243,104.3193,255.8028,0.00043702,6.67e-05,0.0,0 STARLINK-5431,1 54792U 22175AL  23085.76830377  .00006670  00000-0  43702-3 0  9991,2 54792  53.2186 207.2243 0002066 104.3193 255.8028 15.08820272 17046,6917.941,95.439,541.235,538.376,0.0
54792.0,STARLINK-5431,PAYLOAD,2023-03-27 08:44:49,15.08835597,0.0001603,53.2166,204.5421,97.6194,262.498,0.00063013,9.754e-05,0.0,0 STARLINK-5431,1 54792U 22175AL  23086.36446543  .00009754  00000-0  63013-3 0  9999,2 54792  53.2166 204.5421 0001603  97.6194 262.4980 15.08835597 14979,6917.894,95.438,540.868,538.65,0.0
54792.0,STARLINK-5431,PAYLOAD,2023-03-27 13:30:59,15.08823024,0.0001348,53.2167,203.6519,93.0859,267.0287,2.7578e-05,1.51e-06,0.0,0 STARLINK-5431,1 54792U 22175AL  23086.56319025  .00000151  00000-0  27578-4 0  9994,2 54792  53.2167 203.6519 0001348  93.0859 267.0287 15.08823024 17169,6917.932,95.439,540.73,538.865,0.0
54792.0,STARLINK-5431,PAYLOAD,2023-03-27 15:06:22,15.08821788,0.0001331,53.2167,203.3546,86.7063,273.4081,1.3268e-05,-7.7e-07,0.0,0 STARLINK-5431,1 54792U 22175AL  23086.62943157 -.00000077  00000-0  13268-4 0  9999,2 54792  53.2167 203.3546 0001331  86.7063 273.4081 15.08821788 15014,6917.936,95.439,540.722,538.88,0.0
54792.0,STARLINK-5431,PAYLOAD,2023-03-28 00:38:41,15.08831763,0.0001313,53.217,201.5704,85.5422,274.5721,0.00058587,9.046e-05,0.0,0 STARLINK-5431,1 54792U 22175AL  23087.02687306  .00009046  00000-0  58587-3 0  9991,2 54792  53.2170 201.5704 0001313  85.5422 274.5721 15.08831763 15073,6917.906,95.438,540.679,538.862,0.0
54792.0,STARLINK-5431,PAYLOAD,2023-03-28 13:21:46,15.08876239,0.0001256,53.2162,199.1917,97.2627,262.8508,0.0020354,0.00032286,0.0,0 STARLINK-5431,1 54792U 22175AL  23087.55678572  .00032286  00000-0  20354-2 0  9996,2 54792  53.2162 199.1917 0001256  97.2627 262.8508 15.08876239 15154,6917.77,95.435,540.503,538.766,0.0
54792.0,STARLINK-5431,PAYLOAD,2023-03-28 14:57:09,15.08883823,0.0001253,53.216,198.8943,80.6783,279.4351,0.0023077,0.00036675,0.0,0 STARLINK-5431,1 54792U 22175AL  23087.62302463  .00036675  00000-0  23077-2 0  9998,2 54792  53.2160 198.8943 0001253  80.6783 279.4351 15.08883823 17321,6917.746,95.435,540.478,538.745,0.0
54792.0,STARLINK-5431,PAYLOAD,2023-03-29 06:51:00,15.08871839,0.0001406,53.2166,195.919,128.7914,231.3204,0.0015452,0.00024411,0.0,0 STARLINK-5431,1 54792U 22175AL  23088.28541799  .00024411  00000-0  15452-2 0  9991,2 54792  53.2166 195.9190 0001406 128.7914 231.3204 15.08871839 15268,6917.783,95.436,540.621,538.675,0.0
54792.0,STARLINK-5431,PAYLOAD,2023-03-29 13:12:32,15.0888127,0.0001216,53.2155,194.731,139.2942,220.8141,0.0022666,0.0003601,0.0,0 STARLINK-5431,1 54792U 22175AL  23088.55037460  .00036010  00000-0  22666-2 0  9999,2 54792  53.2155 194.7310 0001216 139.2942 220.8141 15.08881270 17461,6917.754,95.435,540.46,538.778,0.0
54792.0,STARLINK-5431,PAYLOAD,2023-03-29 19:34:04,15.08892391,0.0001094,53.2154,193.541,66.2085,293.9022,0.0022035,0.00035006,0.0,0 STARLINK-5431,1 54792U 22175AL  23088.81533037  .00035006  00000-0  22035-2 0  9993,2 54792  53.2154 193.5410 0001094  66.2085 293.9022 15.08892391 15349,6917.72,95.434,540.342,538.828,0.0
54792.0,STARLINK-5431,PAYLOAD,2023-03-30 13:03:19,15.08842867,5.51e-05,53.2163,190.2712,27.6881,332.4141,0.0019347,0.00030639,0.0,0 STARLINK-5431,1 54792U 22175AL  23089.54397828  .00030639  00000-0  19347-2 0  9999,2 54792  53.2163 190.2712 0000551  27.6881 332.4141 15.08842867 15456,6917.872,95.437,540.118,539.355,0.0
54792.0,STARLINK-5431,PAYLOAD,2023-03-31 11:18:43,15.08869629,0.000153,53.2154,186.1055,105.8274,254.2887,0.0022024,0.00034966,0.0,0 STARLINK-5431,1 54792U 22175AL  23090.47133383  .00034966  00000-0  22024-2 0  9990,2 54792  53.2154 186.1055 0001530 105.8274 254.2887 15.08869629 15591,6917.79,95.436,540.713,538.596,0.0
54792.0,STARLINK-5431,PAYLOAD,2023-04-01 04:47:58,15.08836407,0.0001649,53.2162,182.8346,102.8964,257.2213,0.0007053,0.00010954,0.0,0 STARLINK-5431,1 54792U 22175AL  23091.19997699  .00010954  00000-0  70530-3 0  9995,2 54792  53.2162 182.8346 0001649 102.8964 257.2213 15.08836407 15707,6917.891,95.438,540.897,538.616,0.0
54792.0,STARLINK-5431,PAYLOAD,2023-04-01 11:09:31,15.08820647,0.0001592,53.2172,181.6468,101.5625,258.5546,0.00073027,0.00011347,0.0,0 STARLINK-5431,1 54792U 22175AL  23091.46494256  .00011347  00000-0  73027-3 0  9997,2 54792  53.2172 181.6468 0001592 101.5625 258.5546 15.08820647 15743,6917.94,95.439,540.906,538.703,0.0
54792.0,STARLINK-5431,PAYLOAD,2023-04-01 22:17:13,15.08830087,0.0001628,53.2176,179.5673,86.144,273.9739,0.0010569,0.00016568,0.0,0 STARLINK-5431,1 54792U 22175AL  23091.92862931  .00016568  00000-0  10569-2 0  9998,2 54792  53.2176 179.5673 0001628  86.1440 273.9739 15.08830087 17975,6917.911,95.438,540.902,538.649,0.0
54792.0,STARLINK-5431,PAYLOAD,2023-04-02 12:35:41,15.08856037,0.0001635,53.2179,176.8902,90.0521,270.0659,0.001299,0.00020455,0.0,0 STARLINK-5431,1 54792U 22175AL  23092.52478687  .00020455  00000-0  12990-2 0  9996,2 54792  53.2179 176.8902 0001635  90.0521 270.0659 15.08856037 15908,6917.831,95.437,540.827,538.565,0.0
54792.0,STARLINK-5431,PAYLOAD,2023-04-02 14:11:04,15.08861082,0.0001632,53.2183,176.5932,90.9251,269.1928,0.0013778,0.0002172,0.0,0 STARLINK-5431,1 54792U 22175AL  23092.59102551  .00021720  00000-0  13778-2 0  9998,2 54792  53.2183 176.5932 0001632  90.9251 269.1928 15.08861082 18074,6917.816,95.436,540.81,538.552,0.0
54792.0,STARLINK-5431,PAYLOAD,2023-04-02 22:08:00,15.08849931,0.0001275,53.2174,175.1065,96.5233,263.5904,0.00042649,6.508e-05,0.0,0 STARLINK-5431,1 54792U 22175AL  23092.92222525  .00006508  00000-0  42649-3 0  9996,2 54792  53.2174 175.1065 0001275  96.5233 263.5904 15.08849931 18128,6917.85,95.437,540.597,538.833,0.0
54792.0,STARLINK-5431,PAYLOAD,2023-04-03 04:29:32,15.08852105,0.0001882,53.218,173.919,101.9818,258.1386,0.00088338,0.00013804,0.0,0 STARLINK-5431,1 54792U 22175AL  23093.18718655  .00013804  00000-0  88338-3 0  9991,2 54792  53.2180 173.9190 0001882 101.9818 258.1386 15.08852105 16000,6917.843,95.437,541.01,538.406,0.0
54792.0,STARLINK-5431,PAYLOAD,2023-04-03 10:51:05,15.08838607,0.0001704,53.2194,172.7294,110.282,249.8356,3.9405e-05,3.39e-06,0.0,0 STARLINK-5431,1 54792U 22175AL  23093.45214774  .00000339  00000-0  39405-4 0  9995,2 54792  53.2194 172.7294 0001704 110.2820 249.8356 15.08838607 16045,6917.885,95.438,540.928,538.571,0.0
54792.0,STARLINK-5431,PAYLOAD,2023-04-04 10:41:52,15.08842839,0.0001612,53.2183,168.2695,98.9999,261.1176,9.2953e-05,1.192e-05,0.0,0 STARLINK-5431,1 54792U 22175AL  23094.44574869  .00001192  00000-0  92953-4 0  9994,2 54792  53.2183 168.2695 0001612  98.9999 261.1176 15.08842839 18350,6917.872,95.437,540.852,538.622,0.0
54792.0,STARLINK-5431,PAYLOAD,2023-04-04 17:03:25,15.08849521,0.0001558,53.2171,167.0767,83.8262,276.2908,0.00035724,5.404e-05,0.0,0 STARLINK-5431,1 54792U 22175AL  23094.71070637  .00005404  00000-0  35724-3 0  9990,2 54792  53.2171 167.0767 0001558  83.8262 276.2908 15.08849521 16239,6917.851,95.437,540.794,538.638,0.0
54792.0,STARLINK-5431,PAYLOAD,2023-04-05 04:11:07,15.08834861,0.0001207,53.2175,164.9979,64.3462,295.7655,3.4612e-05,2.63e-06,0.0,0 STARLINK-5431,1 54792U 22175AL  23095.17439123  .00000263  00000-0  34612-4 0  9994,2 54792  53.2175 164.9979 0001207  64.3462 295.7655 15.08834861 16305,6917.896,95.438,540.596,538.926,0.0
54792.0,STARLINK-5431,PAYLOAD,2023-04-05 12:08:02,15.08840442,0.0001493,53.2171,163.5097,75.443,284.6727,0.00017437,2.488e-05,0.0,0 STARLINK-5431,1 54792U 22175AL  23095.50559015  .00002488  00000-0  17437-3 0  9990,2 54792  53.2171 163.5097 0001493  75.4430 284.6727 15.08840442 18516,6917.879,95.438,540.777,538.711,0.0
54792.0,STARLINK-5431,PAYLOAD,2023-04-06 13:34:12,15.08849127,0.0001434,53.216,158.7507,91.1925,268.9231,0.00038454,5.839e-05,0.0,0 STARLINK-5431,1 54792U 22175AL  23096.56542812  .00005839  00000-0  38454-3 0  9999,2 54792  53.2160 158.7507 0001434  91.1925 268.9231 15.08849127 18676,6917.852,95.437,540.71,538.725,0.0
54792.0,STARLINK-5431,PAYLOAD,2023-04-06 21:31:08,15.08842037,0.0001642,53.2158,157.265,69.4761,290.6407,0.00016525,2.343e-05,0.0,0 STARLINK-5431,1 54792U 22175AL  23096.89662925  .00002343  00000-0  16525-3 0  9995,2 54792  53.2158 157.2650 0001642  69.4761 290.6407 15.08842037 18729,6917.874,95.437,540.875,538.603,0.0
54792.0,STARLINK-5431,PAYLOAD,2023-04-07 10:14:13,15.08843105,0.000151,53.2162,154.8853,79.9493,280.1669,0.00013384,1.843e-05,0.0,0 STARLINK-5431,1 54792U 22175AL  23097.42655061  .00001843  00000-0  13384-3 0  9992,2 54792  53.2162 154.8853 0001510  79.9493 280.1669 15.08843105 18804,6917.871,95.437,540.78,538.691,0.0
